{
    "links": {
        "self": "http://www.neowsapp.com/rest/v1/neo/3690389?api_key=iIulBulltgU6a56xZRHN4H3l9WmuAYTsLGpBGhQ2"
    },
    "id": "3690389",
    "neo_reference_id": "3690389",
    "name": "(2014 SR223)",
    "designation": "2014 SR223",
    "nasa_jpl_url": "http://ssd.jpl.nasa.gov/sbdb.cgi?sstr=3690389",
    "absolute_magnitude_h": 26.7,
    "estimated_diameter": {
        "kilometers": {
            "estimated_diameter_min": 0.0121494041,
            "estimated_diameter_max": 0.0271668934
        },
        "meters": {
            "estimated_diameter_min": 12.14940408,
            "estimated_diameter_max": 27.1668934089
        },
        "miles": {
            "estimated_diameter_min": 0.0075492874,
            "estimated_diameter_max": 0.0168807197
        },
        "feet": {
            "estimated_diameter_min": 39.8602508817,
            "estimated_diameter_max": 89.1302305717
        }
    },
    "is_potentially_hazardous_asteroid": false,
    "close_approach_data": [
        {
            "close_approach_date": "2014-05-10",
            "close_approach_date_full": "2014-May-10 08:22",
            "epoch_date_close_approach": 1399710120000,
            "relative_velocity": {
                "kilometers_per_second": "13.4934530944",
                "kilometers_per_hour": "48576.4311398519",
                "miles_per_hour": "30183.5052268707"
            },
            "miss_distance": {
                "astronomical": "0.055256928",
                "lunar": "21.494944992",
                "kilometers": "8266318.73154336",
                "miles": "5136452.279323968"
            },
            "orbiting_body": "Mars"
        },
        {
            "close_approach_date": "2014-09-21",
            "close_approach_date_full": "2014-Sep-21 22:44",
            "epoch_date_close_approach": 1411339440000,
            "relative_velocity": {
                "kilometers_per_second": "14.3323887885",
                "kilometers_per_hour": "51596.5996384884",
                "miles_per_hour": "32060.1204809263"
            },
            "miss_distance": {
                "astronomical": "0.0137417867",
                "lunar": "5.3455550263",
                "kilometers": "2055742.020314329",
                "miles": "1277378.8585785802"
            },
            "orbiting_body": "Earth"
        }
    ],
    "orbital_data": {
        "orbit_id": "15",
        "orbit_determination_date": "2019-04-20 07:25:13",
        "first_observation_date": "2014-09-22",
        "last_observation_date": "2014-10-03",
        "data_arc_in_days": 11,
        "observations_used": 66,
        "orbit_uncertainty": "7",
        "minimum_orbit_intersection": ".00521539",
        "jupiter_tisserand_invariant": "3.083",
        "epoch_osculation": "2459000.5",
        "eccentricity": ".6584827007117832",
        "semi_major_axis": "2.568135343311933",
        "inclination": "1.710002126882541",
        "ascending_node_longitude": "186.5383381562404",
        "orbital_period": "1503.229494986348",
        "perihelion_distance": ".8770626466545088",
        "perihelion_argument": "122.938548876543",
        "aphelion_distance": "4.259208039969357",
        "perihelion_time": "2458388.916090549002",
        "mean_anomaly": "146.4648000432953",
        "mean_motion": ".2394843909068385",
        "equinox": "J2000",
        "orbit_class": {
            "orbit_class_type": "APO",
            "orbit_class_description": "Near-Earth asteroid orbits which cross the Earth’s orbit similar to that of 1862 Apollo",
            "orbit_class_range": "a (semi-major axis) > 1.0 AU; q (perihelion) < 1.017 AU"
        }
    },
    "is_sentry_object": false
}